{
    "links": {
        "self": "http://www.neowsapp.com/rest/v1/neo/3368403?api_key=iIulBulltgU6a56xZRHN4H3l9WmuAYTsLGpBGhQ2"
    },
    "id": "3368403",
    "neo_reference_id": "3368403",
    "name": "(2007 DC)",
    "designation": "2007 DC",
    "nasa_jpl_url": "http://ssd.jpl.nasa.gov/sbdb.cgi?sstr=3368403",
    "absolute_magnitude_h": 27.5,
    "estimated_diameter": {
        "kilometers": {
            "estimated_diameter_min": 0.008405334,
            "estimated_diameter_max": 0.0187948982
        },
        "meters": {
            "estimated_diameter_min": 8.4053340207,
            "estimated_diameter_max": 18.7948982439
        },
        "miles": {
            "estimated_diameter_min": 0.0052228308,
            "estimated_diameter_max": 0.0116786047
        },
        "feet": {
            "estimated_diameter_min": 27.5765560686,
            "estimated_diameter_max": 61.6630539546
        }
    },
    "is_potentially_hazardous_asteroid": false,
    "close_approach_data": [
        {
            "close_approach_date": "2006-10-10",
            "close_approach_date_full": "2006-Oct-10 08:25",
            "epoch_date_close_approach": 1160468700000,
            "relative_velocity": {
                "kilometers_per_second": "2.301801242",
                "kilometers_per_hour": "8286.4844711029",
                "miles_per_hour": "5148.8991981694"
            },
            "miss_distance": {
                "astronomical": "0.3170091218",
                "lunar": "123.3165483802",
                "kilometers": "47423889.391850566",
                "miles": "29467838.4262711708"
            },
            "orbiting_body": "Earth"
        },
        {
            "close_approach_date": "2007-02-08",
            "close_approach_date_full": "2007-Feb-08 05:39",
            "epoch_date_close_approach": 1170913140000,
            "relative_velocity": {
                "kilometers_per_second": "6.8646162417",
                "kilometers_per_hour": "24712.6184702292",
                "miles_per_hour": "15355.4600711266"
            },
            "miss_distance": {
                "astronomical": "0.0041994334",
                "lunar": "1.6335795926",
                "kilometers": "628226.291846858",
                "miles": "390361.7164403204"
            },
            "orbiting_body": "Earth"
        },
        {
            "close_approach_date": "2007-02-08",
            "close_approach_date_full": "2007-Feb-08 15:56",
            "epoch_date_close_approach": 1170950160000,
            "relative_velocity": {
                "kilometers_per_second": "7.585272903",
                "kilometers_per_hour": "27306.9824508909",
                "miles_per_hour": "16967.4969567772"
            },
            "miss_distance": {
                "astronomical": "0.0048354799",
                "lunar": "1.8810016811",
                "kilometers": "723377.493467813",
                "miles": "449485.9315012994"
            },
            "orbiting_body": "Moon"
        }
    ],
    "orbital_data": {
        "orbit_id": "8",
        "orbit_determination_date": "2017-04-06 09:07:00",
        "first_observation_date": "2007-02-16",
        "last_observation_date": "2007-02-25",
        "data_arc_in_days": 9,
        "observations_used": 18,
        "orbit_uncertainty": "8",
        "minimum_orbit_intersection": ".00415614",
        "jupiter_tisserand_invariant": "4.806",
        "epoch_osculation": "2454150.5",
        "eccentricity": ".3260668216581827",
        "semi_major_axis": "1.354617084272307",
        "inclination": ".4099891059170518",
        "ascending_node_longitude": "174.8732905669215",
        "orbital_period": "575.8684024835197",
        "perihelion_distance": ".9129213970397613",
        "perihelion_argument": "278.0736176658544",
        "aphelion_distance": "1.796312771504853",
        "perihelion_time": "2454102.460741163067",
        "mean_anomaly": "30.03139798383156",
        "mean_motion": ".6251428250750439",
        "equinox": "J2000",
        "orbit_class": {
            "orbit_class_type": "APO",
            "orbit_class_description": "Near-Earth asteroid orbits which cross the Earth’s orbit similar to that of 1862 Apollo",
            "orbit_class_range": "a (semi-major axis) > 1.0 AU; q (perihelion) < 1.017 AU"
        }
    },
    "is_sentry_object": false
}